{"type": "FeatureCollection", "features": [ {"type": "Feature", "properties": {"norad_id": 30121, "name": "FENGYUN 1C DEB", "group": "fengyun-1c-debris", "lat": 24.627307298034985, "lon": 7.322968670643133, "alt_km": 772.1093972594217, "timestamp": "2025-12-16T03:53:27.329577+00:00", "meta": {"OBJECT_NAME": "FENGYUN 1C DEB", "OBJECT_ID": "1999-025SA", "EPOCH": "2025-12-15T07:51:37.360800", "MEAN_MOTION": 14.40033162, "ECCENTRICITY": 0.0031178, "INCLINATION": 102.1654, "RA_OF_ASC_NODE": 11.817, "ARG_OF_PERICENTER": 158.616, "MEAN_ANOMALY": 222.4621, "EPHEMERIS_TYPE": 0, "CLASSIFICATION_TYPE": "U", "NORAD_CAT_ID": 30121, "ELEMENT_SET_NO": 999, "REV_AT_EPOCH": 97577, "BSTAR": 0.001475672, "MEAN_MOTION_DOT": 4.605e-05, "MEAN_MOTION_DDOT": 0}, "tle": {"line1": "1 30121U 99025SA  25349.32751575  .00004605  00000+0  14757-2 0  9990", "line2": "2 30121 102.1654  11.8170 0031178 158.6160 222.4621 14.40033162975771"}}, "geometry": {"type": "Point", "coordinates": [7.322968670643133, 24.627307298034985]}}, {"type": "Feature", "properties": {"norad_id": 30123, "name": "FENGYUN 1C DEB", "group": "fengyun-1c-debris", "lat": -14.96166914845115, "lon": -68.22280384730153, "alt_km": 804.2502888943463, "timestamp": "2025-12-16T03:53:27.329587+00:00", "meta": {"OBJECT_NAME": "FENGYUN 1C DEB", "OBJECT_ID": "1999-025SC", "EPOCH": "2025-12-15T02:42:02.595456", "MEAN_MOTION": 14.25999506, "ECCENTRICITY": 0.02306864, "INCLINATION": 96.926, "RA_OF_ASC_NODE": 289.0843, "ARG_OF_PERICENTER": 77.6398, "MEAN_ANOMALY": 285.0504, "EPHEMERIS_TYPE": 0, "CLASSIFICATION_TYPE": "U", "NORAD_CAT_ID": 30123, "ELEMENT_SET_NO": 999, "REV_AT_EPOCH": 97281, "BSTAR": 0.0010800862, "MEAN_MOTION_DOT": 3.381e-05, "MEAN_MOTION_DDOT": 0}, "tle": {"line1": "1 30123U 99025SC  25349.11253004  .00003381  00000+0  10801-2 0  9999", "line2": "2 30123  96.9260 289.0843 0230686  77.6398 285.0504 14.25999506972813"}}, "geometry": {"type": "Point", "coordinates": [-68.22280384730153, -14.96166914845115]}}, {"type": "Feature", "properties": {"norad_id": 30124, "name": "FENGYUN 1C DEB", "group": "fengyun-1c-debris", "lat": 51.023559721892426, "lon": -124.4290178219408, "alt_km": 751.7640460133234, "timestamp": "2025-12-16T03:53:27.329598+00:00", "meta": {"OBJECT_NAME": "FENGYUN 1C DEB", "OBJECT_ID": "1999-025SD", "EPOCH": "2025-12-15T03:38:39.833952", "MEAN_MOTION": 14.14240717, "ECCENTRICITY": 0.01432178, "INCLINATION": 99.132, "RA_OF_ASC_NODE": 43.0717, "ARG_OF_PERICENTER": 99.0553, "MEAN_ANOMALY": 287.3554, "EPHEMERIS_TYPE": 0, "CLASSIFICATION_TYPE": "U", "NORAD_CAT_ID": 30124, "ELEMENT_SET_NO": 999, "REV_AT_EPOCH": 96949, "BSTAR": 0.00080993481, "MEAN_MOTION_DOT": 1.661e-05, "MEAN_MOTION_DDOT": 0}, "tle": {"line1": "1 30124U 99025SD  25349.15184993  .00001661  00000+0  80993-3 0  9993", "line2": "2 30124  99.1320  43.0717 0143217  99.0553 287.3554 14.14240717969499"}}, "geometry": {"type": "Point", "coordinates": [-124.4290178219408, 51.023559721892426]}}, {"type": "Feature", "properties": {"norad_id": 30125, "name": "FENGYUN 1C DEB", "group": "fengyun-1c-debris", "lat": 27.861838166628296, "lon": 84.28080724618451, "alt_km": 665.2228305152767, "timestamp": "2025-12-16T03:53:27.329630+00:00", "meta": {"OBJECT_NAME": "FENGYUN 1C DEB", "OBJECT_ID": "1999-025SE", "EPOCH": "2025-12-15T05:55:24.753792", "MEAN_MOTION": 14.22667387, "ECCENTRICITY": 0.03420669, "INCLINATION": 98.7235, "RA_OF_ASC_NODE": 88.0281, "ARG_OF_PERICENTER": 336.9063, "MEAN_ANOMALY": 43.0906, "EPHEMERIS_TYPE": 0, "CLASSIFICATION_TYPE": "U", "NORAD_CAT_ID": 30125, "ELEMENT_SET_NO": 999, "REV_AT_EPOCH": 96957, "BSTAR": 0.00049991662, "MEAN_MOTION_DOT": 1.987e-05, "MEAN_MOTION_DDOT": 0}, "tle": {"line1": "1 30125U 99025SE  25349.24681428  .00001987  00000+0  49992-3 0  9994", "line2": "2 30125  98.7235  88.0281 0342066 336.9063  43.0906 14.22667387969579"}}, "geometry": {"type": "Point", "coordinates": [84.28080724618451, 27.861838166628296]}}, {"type": "Feature", "properties": {"norad_id": 30127, "name": "FENGYUN 1C DEB", "group": "fengyun-1c-debris", "lat": -79.07318853870737, "lon": -21.86759631379357, "alt_km": 831.5442749229414, "timestamp": "2025-12-16T03:53:27.329650+00:00", "meta": {"OBJECT_NAME": "FENGYUN 1C DEB", "OBJECT_ID": "1999-025SG", "EPOCH": "2025-12-15T08:18:24.591744", "MEAN_MOTION": 14.38033973, "ECCENTRICITY": 0.00854648, "INCLINATION": 98.2076, "RA_OF_ASC_NODE": 205.737, "ARG_OF_PERICENTER": 71.2826, "MEAN_ANOMALY": 289.7614, "EPHEMERIS_TYPE": 0, "CLASSIFICATION_TYPE": "U", "NORAD_CAT_ID": 30127, "ELEMENT_SET_NO": 999, "REV_AT_EPOCH": 97273, "BSTAR": 0.0015288939, "MEAN_MOTION_DOT": 4.788e-05, "MEAN_MOTION_DDOT": 0}, "tle": {"line1": "1 30127U 99025SG  25349.34611796  .00004788  00000+0  15289-2 0  9991", "line2": "2 30127  98.2076 205.7370 0085464  71.2826 289.7614 14.38033973972730"}}, "geometry": {"type": "Point", "coordinates": [-21.86759631379357, -79.07318853870737]}}, {"type": "Feature", "properties": {"norad_id": 30128, "name": "FENGYUN 1C DEB", "group": "fengyun-1c-debris", "lat": -20.733682848562268, "lon": -9.032449259254204, "alt_km": 797.0663764402452, "timestamp": "2025-12-16T03:53:27.329661+00:00", "meta": {"OBJECT_NAME": "FENGYUN 1C DEB", "OBJECT_ID": "1999-025SH", "EPOCH": "2025-12-14T17:22:36.785568", "MEAN_MOTION": 14.46152511, "ECCENTRICITY": 0.01075129, "INCLINATION": 96.9799, "RA_OF_ASC_NODE": 347.1243, "ARG_OF_PERICENTER": 118.6808, "MEAN_ANOMALY": 298.9971, "EPHEMERIS_TYPE": 0, "CLASSIFICATION_TYPE": "U", "NORAD_CAT_ID": 30128, "ELEMENT_SET_NO": 999, "REV_AT_EPOCH": 97340, "BSTAR": 0.0019522483, "MEAN_MOTION_DOT": 7.467e-05, "MEAN_MOTION_DDOT": 0}, "tle": {"line1": "1 30128U 99025SH  25348.72403687  .00007467  00000+0  19522-2 0  9992", "line2": "2 30128  96.9799 347.1243 0107512 118.6808 298.9971 14.46152511973405"}}, "geometry": {"type": "Point", "coordinates": [-9.032449259254204, -20.733682848562268]}}, {"type": "Feature", "properties": {"norad_id": 30129, "name": "FENGYUN 1C DEB", "group": "fengyun-1c-debris", "lat": 69.1592070013152, "lon": 133.37022860871954, "alt_km": 758.437409919281, "timestamp": "2025-12-16T03:53:27.329673+00:00", "meta": {"OBJECT_NAME": "FENGYUN 1C DEB", "OBJECT_ID": "1999-025SJ", "EPOCH": "2025-12-15T07:32:09.173184", "MEAN_MOTION": 14.01582981, "ECCENTRICITY": 0.01886382, "INCLINATION": 98.0282, "RA_OF_ASC_NODE": 290.8621, "ARG_OF_PERICENTER": 85.1253, "MEAN_ANOMALY": 66.2017, "EPHEMERIS_TYPE": 0, "CLASSIFICATION_TYPE": "U", "NORAD_CAT_ID": 30129, "ELEMENT_SET_NO": 999, "REV_AT_EPOCH": 96514, "BSTAR": 0.00058267825, "MEAN_MOTION_DOT": 9.96e-06, "MEAN_MOTION_DDOT": 0}, "tle": {"line1": "1 30129U 99025SJ  25349.31399506  .00000996  00000+0  58268-3 0  9994", "line2": "2 30129  98.0282 290.8621 0188638  85.1253  66.2017 14.01582981965148"}}, "geometry": {"type": "Point", "coordinates": [133.37022860871954, 69.1592070013152]}}, {"type": "Feature", "properties": {"norad_id": 30131, "name": "FENGYUN 1C DEB", "group": "fengyun-1c-debris", "lat": 57.874127390516186, "lon": 67.34375883941142, "alt_km": 815.2746894558113, "timestamp": "2025-12-16T03:53:27.329683+00:00", "meta": {"OBJECT_NAME": "FENGYUN 1C DEB", "OBJECT_ID": "1999-025SL", "EPOCH": "2025-12-15T05:47:12.037056", "MEAN_MOTION": 14.21220133, "ECCENTRICITY": 0.00826841, "INCLINATION": 99.0758, "RA_OF_ASC_NODE": 81.1449, "ARG_OF_PERICENTER": 151.9108, "MEAN_ANOMALY": 238.5107, "EPHEMERIS_TYPE": 0, "CLASSIFICATION_TYPE": "U", "NORAD_CAT_ID": 30131, "ELEMENT_SET_NO": 999, "REV_AT_EPOCH": 96724, "BSTAR": 0.0017313966, "MEAN_MOTION_DOT": 3.857e-05, "MEAN_MOTION_DDOT": 0}, "tle": {"line1": "1 30131U 99025SL  25349.24111154  .00003857  00000+0  17314-2 0  9995", "line2": "2 30131  99.0758  81.1449 0082684 151.9108 238.5107 14.21220133967241"}}, "geometry": {"type": "Point", "coordinates": [67.34375883941142, 57.874127390516186]}}, {"type": "Feature", "properties": {"norad_id": 30132, "name": "FENGYUN 1C DEB", "group": "fengyun-1c-debris", "lat": 79.95266889295775, "lon": -128.47883733689258, "alt_km": 850.661306929258, "timestamp": "2025-12-16T03:53:27.329694+00:00", "meta": {"OBJECT_NAME": "FENGYUN 1C DEB", "OBJECT_ID": "1999-025SM", "EPOCH": "2025-12-15T09:15:54.434016", "MEAN_MOTION": 13.94852642, "ECCENTRICITY": 0.01056504, "INCLINATION": 99.5776, "RA_OF_ASC_NODE": 303.068, "ARG_OF_PERICENTER": 42.685, "MEAN_ANOMALY": 108.4653, "EPHEMERIS_TYPE": 0, "CLASSIFICATION_TYPE": "U", "NORAD_CAT_ID": 30132, "ELEMENT_SET_NO": 999, "REV_AT_EPOCH": 96126, "BSTAR": 0.00041509372, "MEAN_MOTION_DOT": 5.36e-06, "MEAN_MOTION_DDOT": 0}, "tle": {"line1": "1 30132U 99025SM  25349.38604669  .00000536  00000+0  41509-3 0  9994", "line2": "2 30132  99.5776 303.0680 0105650  42.6850 108.4653 13.94852642961261"}}, "geometry": {"type": "Point", "coordinates": [-128.47883733689258, 79.95266889295775]}}, {"type": "Feature", "properties": {"norad_id": 30133, "name": "FENGYUN 1C DEB", "group": "fengyun-1c-debris", "lat": 63.27949923391931, "lon": -6.510387656099023, "alt_km": 908.3868971243819, "timestamp": "2025-12-16T03:53:27.329732+00:00", "meta": {"OBJECT_NAME": "FENGYUN 1C DEB", "OBJECT_ID": "1999-025SN", "EPOCH": "2025-12-15T00:35:58.782624", "MEAN_MOTION": 14.06683526, "ECCENTRICITY": 0.00856105, "INCLINATION": 98.324, "RA_OF_ASC_NODE": 155.5351, "ARG_OF_PERICENTER": 253.9734, "MEAN_ANOMALY": 226.8603, "EPHEMERIS_TYPE": 0, "CLASSIFICATION_TYPE": "U", "NORAD_CAT_ID": 30133, "ELEMENT_SET_NO": 999, "REV_AT_EPOCH": 96410, "BSTAR": 0.0011295403, "MEAN_MOTION_DOT": 1.899e-05, "MEAN_MOTION_DDOT": 0}, "tle": {"line1": "1 30133U 99025SN  25349.02498591  .00001899  00000+0  11295-2 0  9992", "line2": "2 30133  98.3240 155.5351 0085610 253.9734 226.8603 14.06683526964104"}}, "geometry": {"type": "Point", "coordinates": [-6.510387656099023, 63.27949923391931]}}]}